HST                     
1 20580U 90037B   26185.74496624  .00011431  00000+0  36310-3 0  9993
2 20580  28.4738 320.5597 0001727 359.9482   0.1113 15.30970466791269
POLAR                   
1 23802U 96013A   26184.98221311  .00000203  00000+0  00000+0 0  9995
2 23802  79.8755 226.8535 6487344 208.5029  90.9548  1.29846112145077
SWAS                    
1 25560U 98071A   26185.70676834  .00003682  00000+0  23424-3 0  9992
2 25560  69.8940 182.3358 0008236 242.0271 118.0060 15.09708796499913
CXO                     
1 25867U 99040B   26187.88935528  .00000762  00000+0  00000+0 0  9995
2 25867  56.4267 116.1509 7809224 310.0350   0.5660  0.37802688 17396
XMM-NEWTON              
1 25989U 99066A   26181.31376484  .00000075  00000+0  00000+0 0  9997
2 25989  64.4187 282.8185 4670815  64.6474   0.0796  0.50127122 23075
TERRA                   
1 25994U 99068A   26185.63628185  .00000621  00000+0  13521-3 0  9995
2 25994  97.9446 234.4899 0002873 143.9918  16.3015 14.61118561412157
CLUSTER II-FM7 (SAMBA)  
1 26410U 00041A   26188.21797159  .00007566  00000+0  00000+0 0  9996
2 26410 149.8716  54.4790 9079263 271.8893 359.5006  0.44837774 20390
CLUSTER II-FM8 (TANGO)  
1 26464U 00045B   26184.19681525  .00012165  00000+0  00000+0 0  9992
2 26464 150.1065  54.7656 9078554 272.0035   2.3073  0.44420887 20387
ODIN                    
1 26702U 01007A   26185.58418876  .00550414  00000+0  23840-2 0  9991
2 26702  97.3755 227.7265 0005271 136.8814 223.2869 15.83489487392140
TIMED                   
1 26998U 01055B   26185.73779449  .00001395  00000+0  13011-3 0  9993
2 26998  74.0660 199.6796 0001942 310.9345  49.1671 14.95329689333448
CORIOLIS                
1 27640U 03001A   26185.74295702  .00000161  00000+0  96082-4 0  9997
2 27640  98.7128 192.3598 0014423 157.9020 202.2781 14.19949990216715
SORCE                   
1 27651U 03004A   26185.27384723  .00003392  00000+0  25254-3 0  9993
2 27651  39.9891 164.1845 0017381 179.1457 180.9369 15.03795657274473
MOST                    
1 27843U 03031D   26185.95125303  .00000098  00000+0  65089-4 0  9999
2 27843  98.7045 193.4292 0009469 194.7788 165.3113 14.21326346193231
SCISAT 1                
1 27858U 03036A   26185.85076496  .00000927  00000+0  12294-3 0  9997
2 27858  73.9297 136.2477 0007887 205.8103 154.2681 14.81470217234065
SWIFT                   
1 28485U 04047A   26185.92335684  .00087977  00000+0  67943-3 0  9993
2 28485  20.5532  47.9146 0000856 222.0058 138.0322 15.70170079189650
HINODE (SOLAR-B)        
1 29479U 06041A   26185.76326957  .00001113  00000+0  19952-3 0  9993
2 29479  98.0545 201.6566 0016295 229.0955 130.8839 14.68649869 57459
SHIJIAN-6 02A (SJ-6 02A)
1 29505U 06046A   26185.96665039  .00005992  00000+0  30529-3 0  9999
2 29505  97.6349 227.1673 0004807  87.1507 273.0276 15.17154299 74963
SHIJIAN-6 02B (SJ-6 02B)
1 29506U 06046B   26186.00754340  .00001133  00000+0  92391-4 0  9999
2 29506  97.7148 214.9561 0014621   9.3188 350.8304 15.01420265 73415
FGRST (GLAST)           
1 33053U 08029A   26185.84181644  .00004693  00000+0  17438-3 0  9998
2 33053  25.5822  81.8870 0008133 171.8588 188.2083 15.24033357998532
SDO                     
1 36395U 10005A   26183.25044652 -.00000081  00000+0  00000+0 0  9998
2 36395  34.6806  86.1151 0001496  53.7669 128.3250  1.00270409 60216
CRYOSAT 2               
1 36508U 10013A   26185.86290121  .00000200  00000+0  49054-4 0  9995
2 36508  92.0361 281.5986 0002233  96.7989 263.3472 14.51896107860645
X-SAT                   
1 37389U 11015C   26185.91724418  .00000083  00000+0  52693-4 0  9995
2 37389  98.3522 162.0970 0012891 293.8682  66.1147 14.25211375790209
GCOM-W1 (SHIZUKU)       
1 38337U 12025A   26185.63330613  .00000714  00000+0  16845-3 0  9999
2 38337  98.2022 125.9251 0001484  66.4505 106.7151 14.57142313751574
NUSTAR                  
1 38358U 12031A   26186.00003472 -.00000287  00000+0 -69983-4 0  9990
2 38358   6.0268 260.5302 0007727   3.9842 268.1345 15.08981662  1307
NEOSSAT                 
1 39089U 13009D   26185.77049034  .00000255  00000+0  10286-3 0  9999
2 39089  98.4185   5.3855 0010776 187.8885 172.2134 14.35833296699264
BRITE-AUSTRIA           
1 39091U 13009F   26185.76036508  .00000282  00000+0  11034-3 0  9995
2 39091  98.4004   4.7618 0010100 180.9237 179.1932 14.36549830699578
IRIS                    
1 39197U 13033A   26185.80804778  .00001612  00000+0  19045-3 0  9994
2 39197  97.9322  25.0295 0022958 261.0300  98.8316 14.85923913702991
HISAKI (SPRINT-A)       
1 39253U 13049A   26185.87816476  .00000107  00000+0  55678-4 0  9990
2 39253  29.7184 130.0653 0136893 160.2824 200.3105 13.55546067633821
CASSIOPE                
1 39265U 13055A   26185.86580428  .00056395 -81233-7  60849-3 0  9995
2 39265  80.9130  45.2261 0285776   2.8637 357.4145 15.26829123670369
STSAT-3                 
1 39422U 13066G   26185.95727442  .00004925  00000+0  37154-3 0  9990
2 39422  97.6212 155.5600 0009239 347.3576  12.7416 15.02855405686870
